KALN 181550Z 22007KT 10SM CLR M06/M13 A3035