KLAX 201553Z VRB04KT 10SM SCT021 BKN140 17/11 A2999 RMK AO2 SLP153 SCT V BKN T01720111
KSTL 201551Z 13014KT 10SM -RA BKN065 OVC080 12/03 A3003 RMK AO2 PK WND 12026/1511 RAB39 SLP168 P0000 T01170033
